start=new Date('2022-09-17T00:00:00.000Z').valueOf();
sats=[{"ARG_OF_PERICENTER":"46.8986","ECCENTRICITY":"0.00019090","DECAY_DATE":null,"OBJECT_TYPE":"PAYLOAD","SEMIMAJOR_AXIS":"6925.357","MEAN_ELEMENT_THEORY":"SGP4","TLE_LINE1":"1 45215U 20012AP  22259.60029226  .00000135  00000-0  27966-4 0  9992","TIME_SYSTEM":"UTC","RA_OF_ASC_NODE":"328.2803","PERIAPSIS":"545.900","MEAN_ANOMALY":"313.2163","PERIOD":"95.592","NORAD_CAT_ID":"45215","OBJECT_ID":"2020-012AP","MEAN_MOTION_DDOT":"0.0000000000000","REV_AT_EPOCH":"14362","ELEMENT_SET_NO":"999","RCS_SIZE":"LARGE","OBJECT_NAME":"STARLINK-1245","TLE_LINE2":"2 45215  53.0562 328.2803 0001909  46.8986 313.2163 15.06397133143629","SITE":"AFETR","CENTER_NAME":"EARTH","CLASSIFICATION_TYPE":"U","MEAN_MOTION_DOT":"0.00000135","APOAPSIS":"548.544","FILE":"3575787","MEAN_MOTION":"15.06397133","EPOCH":"2022-09-16T14:24:25.251264","COUNTRY_CODE":"US","BSTAR":"0.00002796600000","EPHEMERIS_TYPE":"0","INCLINATION":"53.0562","GP_ID":"212745072","LAUNCH_DATE":"2020-02-17","REF_FRAME":"TEME"},{"ELEMENT_SET_NO":"999","RCS_SIZE":"LARGE","MEAN_MOTION_DDOT":"0.0000000000000","REV_AT_EPOCH":"14366","PERIOD":"95.592","MEAN_ANOMALY":"269.4628","NORAD_CAT_ID":"45217","OBJECT_ID":"2020-012AR","RA_OF_ASC_NODE":"328.9960","TIME_SYSTEM":"UTC","PERIAPSIS":"546.220","TLE_LINE1":"1 45217U 20012AR  22259.44180538  .00001121  00000-0  94138-4 0  9991","MEAN_ELEMENT_THEORY":"SGP4","ECCENTRICITY":"0.00014450","ARG_OF_PERICENTER":"90.6527","DECAY_DATE":null,"OBJECT_TYPE":"PAYLOAD","SEMIMAJOR_AXIS":"6925.356","GP_ID":"212715519","LAUNCH_DATE":"2020-02-17","REF_FRAME":"TEME","BSTAR":"0.00009413800000","EPHEMERIS_TYPE":"0","INCLINATION":"53.0537","COUNTRY_CODE":"US","FILE":"3575604","MEAN_MOTION":"15.06397686","EPOCH":"2022-09-16T10:36:11.984832","APOAPSIS":"548.221","MEAN_MOTION_DOT":"0.00001121","CLASSIFICATION_TYPE":"U","TLE_LINE2":"2 45217  53.0537 328.9960 0001445  90.6527 269.4628 15.06397686143662","SITE":"AFETR","CENTER_NAME":"EARTH","OBJECT_NAME":"STARLINK-1271"},{"MEAN_MOTION_DOT":"-0.00001814","APOAPSIS":"548.262","TLE_LINE2":"2 45219  53.0532 308.7043 0001462  85.5354 274.5802 15.06388207143960","OBJECT_NAME":"STARLINK-1187","SITE":"AFETR","CENTER_NAME":"EARTH","CLASSIFICATION_TYPE":"U","BSTAR":"-0.00010294000000","EPHEMERIS_TYPE":"0","INCLINATION":"53.0532","GP_ID":"212715270","REF_FRAME":"TEME","LAUNCH_DATE":"2020-02-17","FILE":"3575604","MEAN_MOTION":"15.06388207","EPOCH":"2022-09-16T12:09:04.900608","COUNTRY_CODE":"US","TLE_LINE1":"1 45219U 20012AT  22259.50630672 -.00001814  00000-0 -10294-3 0  9990","RA_OF_ASC_NODE":"308.7043","TIME_SYSTEM":"UTC","PERIAPSIS":"546.237","ARG_OF_PERICENTER":"85.5354","ECCENTRICITY":"0.00014620","SEMIMAJOR_AXIS":"6925.385","DECAY_DATE":null,"OBJECT_TYPE":"PAYLOAD","MEAN_ELEMENT_THEORY":"SGP4","ELEMENT_SET_NO":"999","RCS_SIZE":"LARGE","MEAN_ANOMALY":"274.5802","PERIOD":"95.593","NORAD_CAT_ID":"45219","OBJECT_ID":"2020-012AT","REV_AT_EPOCH":"14396","MEAN_MOTION_DDOT":"0.0000000000000"},{"COUNTRY_CODE":"US","EPOCH":"2022-09-16T12:14:23.790048","MEAN_MOTION":"15.06390309","FILE":"3575697","REF_FRAME":"TEME","LAUNCH_DATE":"2020-02-17","GP_ID":"212724478","INCLINATION":"53.0532","EPHEMERIS_TYPE":"0","BSTAR":"0.00010878000000","CLASSIFICATION_TYPE":"U","TLE_LINE2":"2 45221  53.0532 308.6843 0001401  77.6846 282.4300 15.06390309143014","SITE":"AFETR","OBJECT_NAME":"STARLINK-1189","CENTER_NAME":"EARTH","APOAPSIS":"548.214","MEAN_MOTION_DOT":"0.00001339","REV_AT_EPOCH":"14301","MEAN_MOTION_DDOT":"0.0000000000000","OBJECT_ID":"2020-012AV","NORAD_CAT_ID":"45221","PERIOD":"95.593","MEAN_ANOMALY":"282.4300","RCS_SIZE":"LARGE","ELEMENT_SET_NO":"999","MEAN_ELEMENT_THEORY":"SGP4","DECAY_DATE":null,"OBJECT_TYPE":"PAYLOAD","SEMIMAJOR_AXIS":"6925.378","ARG_OF_PERICENTER":"77.6846","ECCENTRICITY":"0.00014010","PERIAPSIS":"546.273","RA_OF_ASC_NODE":"308.6843","TIME_SYSTEM":"UTC","TLE_LINE1":"1 45221U 20012AV  22259.50999757  .00001339  00000-0  10878-3 0  9993"},{"EPOCH":"2022-09-16T20:22:42.340224","FILE":"3575787","MEAN_MOTION":"15.06396358","COUNTRY_CODE":"US","INCLINATION":"53.0562","BSTAR":"0.00007077300000","EPHEMERIS_TYPE":"0","LAUNCH_DATE":"2020-02-17","REF_FRAME":"TEME","GP_ID":"212745571","TLE_LINE2":"2 45222  53.0562 307.1490 0001405  69.3991 290.7148 15.06396358144005","SITE":"AFETR","CENTER_NAME":"EARTH","OBJECT_NAME":"STARLINK-1191","CLASSIFICATION_TYPE":"U","MEAN_MOTION_DOT":"0.00000773","APOAPSIS":"548.198","OBJECT_ID":"2020-012AW","PERIOD":"95.592","MEAN_ANOMALY":"290.7148","NORAD_CAT_ID":"45222","MEAN_MOTION_DDOT":"0.0000000000000","REV_AT_EPOCH":"14400","RCS_SIZE":"LARGE","ELEMENT_SET_NO":"999","OBJECT_TYPE":"PAYLOAD","DECAY_DATE":null,"SEMIMAJOR_AXIS":"6925.360","ARG_OF_PERICENTER":"69.3991","ECCENTRICITY":"0.00014050","MEAN_ELEMENT_THEORY":"SGP4","TLE_LINE1":"1 45222U 20012AW  22259.84910116  .00000773  00000-0  70773-4 0  9995","PERIAPSIS":"546.252","RA_OF_ASC_NODE":"307.1490","TIME_SYSTEM":"UTC"},{"TLE_LINE2":"2 45223  53.0531 307.0439 0000812  99.5033 260.6048 15.06395210144019","CENTER_NAME":"EARTH","SITE":"AFETR","OBJECT_NAME":"STARLINK-1212","CLASSIFICATION_TYPE":"U","MEAN_MOTION_DOT":"0.00000010","APOAPSIS":"547.791","EPOCH":"2022-09-16T20:53:11.210496","FILE":"3575787","MEAN_MOTION":"15.06395210","COUNTRY_CODE":"US","INCLINATION":"53.0531","BSTAR":"0.00001952500000","EPHEMERIS_TYPE":"0","REF_FRAME":"TEME","LAUNCH_DATE":"2020-02-17","GP_ID":"212745823","DECAY_DATE":null,"OBJECT_TYPE":"PAYLOAD","SEMIMAJOR_AXIS":"6925.363","ECCENTRICITY":"0.00008120","ARG_OF_PERICENTER":"99.5033","MEAN_ELEMENT_THEORY":"SGP4","TLE_LINE1":"1 45223U 20012AX  22259.87026864  .00000010  00000-0  19525-4 0  9999","PERIAPSIS":"546.666","TIME_SYSTEM":"UTC","RA_OF_ASC_NODE":"307.0439","OBJECT_ID":"2020-012AX","MEAN_ANOMALY":"260.6048","PERIOD":"95.592","NORAD_CAT_ID":"45223","MEAN_MOTION_DDOT":"0.0000000000000","REV_AT_EPOCH":"14401","RCS_SIZE":"LARGE","ELEMENT_SET_NO":"999"},{"MEAN_MOTION":"15.06399838","FILE":"3575787","EPOCH":"2022-09-16T19:45:32.846112","COUNTRY_CODE":"US","EPHEMERIS_TYPE":"0","BSTAR":"0.00007935200000","INCLINATION":"53.0557","GP_ID":"212746073","REF_FRAME":"TEME","LAUNCH_DATE":"2020-02-17","TLE_LINE2":"2 45225  53.0557 307.2659 0001390  78.8770 281.2375 15.06399838143959","CENTER_NAME":"EARTH","SITE":"AFETR","OBJECT_NAME":"STARLINK-1215","CLASSIFICATION_TYPE":"U","MEAN_MOTION_DOT":"0.00000901","APOAPSIS":"548.177","NORAD_CAT_ID":"45225","MEAN_ANOMALY":"281.2375","PERIOD":"95.592","OBJECT_ID":"2020-012AZ","REV_AT_EPOCH":"14395","MEAN_MOTION_DDOT":"0.0000000000000","ELEMENT_SET_NO":"999","RCS_SIZE":"LARGE","ARG_OF_PERICENTER":"78.8770","ECCENTRICITY":"0.00013900","SEMIMAJOR_AXIS":"6925.349","DECAY_DATE":null,"OBJECT_TYPE":"PAYLOAD","MEAN_ELEMENT_THEORY":"SGP4","TLE_LINE1":"1 45225U 20012AZ  22259.82329683  .00000901  00000-0  79352-4 0  9994","TIME_SYSTEM":"UTC","RA_OF_ASC_NODE":"307.2659","PERIAPSIS":"546.251"},{"CENTER_NAME":"EARTH","TLE_LINE2":"2 45226  53.0558 309.0328 0001433  76.9327 283.1822 15.06393401143856","SITE":"AFETR","OBJECT_NAME":"STARLINK-1217","CLASSIFICATION_TYPE":"U","MEAN_MOTION_DOT":"0.00000938","APOAPSIS":"548.226","EPOCH":"2022-09-16T10:22:55.795008","FILE":"3575604","MEAN_MOTION":"15.06393401","COUNTRY_CODE":"US","INCLINATION":"53.0558","BSTAR":"0.00008184600000","EPHEMERIS_TYPE":"0","LAUNCH_DATE":"2020-02-17","REF_FRAME":"TEME","GP_ID":"212716514","DECAY_DATE":null,"SEMIMAJOR_AXIS":"6925.369","OBJECT_TYPE":"PAYLOAD","ARG_OF_PERICENTER":"76.9327","ECCENTRICITY":"0.00014330","MEAN_ELEMENT_THEORY":"SGP4","TLE_LINE1":"1 45226U 20012BA  22259.43259022  .00000938  00000-0  81846-4 0  9992","PERIAPSIS":"546.241","RA_OF_ASC_NODE":"309.0328","TIME_SYSTEM":"UTC","OBJECT_ID":"2020-012BA","PERIOD":"95.593","MEAN_ANOMALY":"283.1822","NORAD_CAT_ID":"45226","REV_AT_EPOCH":"14385","MEAN_MOTION_DDOT":"0.0000000000000","RCS_SIZE":"LARGE","ELEMENT_SET_NO":"999"},{"MEAN_ELEMENT_THEORY":"SGP4","ECCENTRICITY":"0.00013550","ARG_OF_PERICENTER":"91.3482","DECAY_DATE":null,"SEMIMAJOR_AXIS":"6925.367","OBJECT_TYPE":"PAYLOAD","TIME_SYSTEM":"UTC","RA_OF_ASC_NODE":"307.1452","PERIAPSIS":"546.294","TLE_LINE1":"1 45227U 20012BB  22259.85278613  .00000194  00000-0  31923-4 0  9991","MEAN_MOTION_DDOT":"0.0000000000000","REV_AT_EPOCH":"14392","NORAD_CAT_ID":"45227","MEAN_ANOMALY":"268.7662","PERIOD":"95.593","OBJECT_ID":"2020-012BB","ELEMENT_SET_NO":"999","RCS_SIZE":"LARGE","CLASSIFICATION_TYPE":"U","TLE_LINE2":"2 45227  53.0559 307.1452 0001355  91.3482 268.7662 15.06393982143924","CENTER_NAME":"EARTH","SITE":"AFETR","OBJECT_NAME":"STARLINK-1221","APOAPSIS":"548.170","MEAN_MOTION_DOT":"0.00000194","COUNTRY_CODE":"US","MEAN_MOTION":"15.06393982","FILE":"3575787","EPOCH":"2022-09-16T20:28:00.721632","GP_ID":"212745073","REF_FRAME":"TEME","LAUNCH_DATE":"2020-02-17","EPHEMERIS_TYPE":"0","BSTAR":"0.00003192300000","INCLINATION":"53.0559"},{"GP_ID":"212746322","LAUNCH_DATE":"2020-02-17","REF_FRAME":"TEME","EPHEMERIS_TYPE":"0","BSTAR":"-0.00001358300000","INCLINATION":"53.0558","COUNTRY_CODE":"US","MEAN_MOTION":"15.06398493","FILE":"3575787","EPOCH":"2022-09-16T20:33:19.107360","APOAPSIS":"548.072","MEAN_MOTION_DOT":"-0.00000484","CLASSIFICATION_TYPE":"U","SITE":"AFETR","TLE_LINE2":"2 45228  53.0558 307.1249 0001233  85.2436 274.8694 15.06398493143895","CENTER_NAME":"EARTH","OBJECT_NAME":"STARLINK-1222","ELEMENT_SET_NO":"999","RCS_SIZE":"LARGE","MEAN_MOTION_DDOT":"0.0000000000000","REV_AT_EPOCH":"14389","NORAD_CAT_ID":"45228","MEAN_ANOMALY":"274.8694","PERIOD":"95.592","OBJECT_ID":"2020-012BC","RA_OF_ASC_NODE":"307.1249","TIME_SYSTEM":"UTC","PERIAPSIS":"546.364","TLE_LINE1":"1 45228U 20012BC  22259.85647115 -.00000484  00000-0 -13583-4 0  9995","MEAN_ELEMENT_THEORY":"SGP4","ARG_OF_PERICENTER":"85.2436","ECCENTRICITY":"0.00012330","DECAY_DATE":null,"OBJECT_TYPE":"PAYLOAD","SEMIMAJOR_AXIS":"6925.353"}];
